     2.100          NAVIGATION                              RINEX VERSION / TYPE
fic2rin                                 03/09/2014 00:15:27 PGM / RUN BY / DATE
                                                            END OF HEADER
30 14  3  8  8  0  0.0  .274693593383D-05  .329691829393D-11  .000000000000D+00
     .590000000000D+02  .234062500000D+02  .440589780904D-08  .238697008069D+01
     .125356018543D-05  .211174250580D-03  .427663326263D-05  .518049125099D+04
     .547200000000D+06 -.316649675369D-07  .302156220305D+01  .167638063431D-07
     .959700156575D+00  .287781250000D+03 -.308761086089D+01 -.797854662421D-08
     .803604901941D-10  .100000000000D+01  .178200000000D+04  .000000000000D+00
     .340000000000D+01  .630000000000D+02  .512227416039D-08  .590000000000D+02
     .540006000000D+06  .400000000000D+01
31 14  3  8  8  0  0.0  .333699863404D-03  .227373675443D-12  .000000000000D+00
     .250000000000D+02  .339687500000D+02  .404945439032D-08  .167049053075D+01
     .182352960110D-05  .817099597771D-02  .472180545330D-05  .515378827667D+04
     .547200000000D+06  .577419996262D-07  .297188493123D+01  .949949026108D-07
     .979129762605D+00  .295093750000D+03 -.645760028737D+00 -.796283168390D-08
     .182150444440D-10  .100000000000D+01  .178200000000D+04  .000000000000D+00
     .240000000000D+01  .000000000000D+00 -.130385160446D-07  .250000000000D+02
     .540006000000D+06  .400000000000D+01
32 14  3  8  8  0  0.0 -.473155174404D-03  .693489710102D-11  .000000000000D+00
     .840000000000D+02  .581250000000D+01  .475519807309D-08  .235433188826D+01
     .324100255966D-06  .114575177431D-01  .888295471668D-05  .515349416161D+04
     .547200000000D+06 -.113621354103D-06  .933420635596D+00  .154599547386D-06
     .948079983223D+00  .201906250000D+03 -.174768064249D+00 -.802247702551D-08
    -.416088760338D-09  .100000000000D+01  .178200000000D+04  .000000000000D+00
     .240000000000D+01  .000000000000D+00 -.325962901115D-08  .840000000000D+02
     .540006000000D+06  .400000000000D+01
10 14  3  8  7 59 44.0 -.117261894047D-03 -.159161572810D-11  .000000000000D+00
     .440000000000D+02  .103750000000D+02  .505342478114D-08 -.654266375106D+00
     .583007931709D-06  .134660832118D-01  .816024839878D-05  .515371196175D+04
     .547184000000D+06  .167638063431D-07  .862335500444D+00  .281259417534D-06
     .942439702568D+00  .211593750000D+03  .859405364769D+00 -.843642283945D-08
    -.330370904131D-09  .100000000000D+01  .178200000000D+04  .000000000000D+00
     .240000000000D+01  .000000000000D+00 -.279396772385D-08  .440000000000D+02
     .541236000000D+06  .400000000000D+01
30 14  3  8  7 59 44.0  .275298953056D-05  .341060513165D-11  .000000000000D+00
     .280000000000D+02  .234062500000D+02  .440589780904D-08  .238445579996D+01
     .125542283058D-05  .211209291592D-03  .427849590778D-05  .518049123764D+04
     .547184000000D+06 -.316649675369D-07  .302156236251D+01  .167638063431D-07
     .959700140483D+00  .287781250000D+03 -.308739420419D+01 -.797854662421D-08
     .803604901941D-10  .100000000000D+01  .178200000000D+04  .000000000000D+00
     .240000000000D+01  .630000000000D+02  .512227416039D-08  .280000000000D+02
     .542556000000D+06  .400000000000D+01
25 14  3  8  7 59 44.0  .176616013050D-04  .147792889038D-11  .000000000000D+00
     .360000000000D+02 -.518125000000D+02  .424660545959D-08  .601822834920D+00
    -.281631946564D-05  .328200520016D-02  .647082924843D-05  .515364692688D+04
     .547184000000D+06  .223517417908D-07 -.229712993053D+01  .558793544769D-07
     .975650985837D+00  .264625000000D+03  .610387199157D+00 -.809069415274D-08
    -.271439877989D-10  .100000000000D+01  .178200000000D+04  .000000000000D+00
     .240000000000D+01  .000000000000D+00  .558793544769D-08  .360000000000D+02
     .545106000000D+06  .400000000000D+01
 1 14  3  8  7 59 44.0  .296905636787D-05  .193267624127D-11  .000000000000D+00
     .260000000000D+02 -.881250000000D+01  .478162774542D-08  .236877706030D+01
    -.437721610069D-06  .277749530505D-02  .724568963051D-05  .515367996407D+04
     .547184000000D+06 -.134110450745D-06 -.194354220068D+00 -.149011611938D-07
     .961069772665D+00  .239687500000D+03  .348789735990D+00 -.805640701026D-08
     .108575951196D-09  .100000000000D+01  .178200000000D+04  .000000000000D+00
     .240000000000D+01  .000000000000D+00  .651925802231D-08  .260000000000D+02
     .545676000000D+06  .400000000000D+01
 1 14  3  8  9 59 44.0  .298302620649D-05  .193267624127D-11  .000000000000D+00
     .290000000000D+02 -.921875000000D+01  .477877048354D-08 -.286410604949D+01
    -.508502125740D-06  .277853151783D-02  .767223536968D-05  .515367791176D+04
     .554384000000D+06 -.745058059692D-07 -.194412034590D+00 -.335276126862D-07
     .961070771838D+00  .231875000000D+03  .348667234156D+00 -.801140513575D-08
     .112861844006D-09  .100000000000D+01  .178200000000D+04  .000000000000D+00
     .240000000000D+01  .000000000000D+00  .651925802231D-08  .290000000000D+02
     .547206000000D+06  .400000000000D+01
10 14  3  8  9 59 44.0 -.117273069918D-03 -.159161572810D-11  .000000000000D+00
     .450000000000D+02  .146875000000D+01  .517271546436D-08  .395887557003D+00
     .352039933205D-06  .134648110252D-01  .817328691483D-05  .515370949554D+04
     .554384000000D+06 -.119209289551D-06  .862274401670D+00  .176951289177D-06
     .942437180497D+00  .211312500000D+03  .859414003300D+00 -.848106755622D-08
    -.352871841386D-09  .100000000000D+01  .178200000000D+04  .000000000000D+00
     .240000000000D+01  .000000000000D+00 -.279396772385D-08  .450000000000D+02
     .547206000000D+06  .400000000000D+01
25 14  3  8  9 59 44.0  .176727771759D-04  .147792889038D-11  .000000000000D+00
     .790000000000D+02 -.460000000000D+02  .415553023737D-08  .165200274114D+01
    -.245682895184D-05  .328253512271D-02  .640563666821D-05  .515364743805D+04
     .554384000000D+06 -.521540641785D-07 -.229718842531D+01  .987201929092D-07
     .975650985837D+00  .260500000000D+03  .610401683509D+00 -.806676458455D-08
     .289297764699D-10  .100000000000D+01  .178200000000D+04  .000000000000D+00
     .240000000000D+01  .000000000000D+00  .558793544769D-08  .790000000000D+02
     .547206000000D+06  .400000000000D+01
30 14  3  8  9 59 44.0  .277766957879D-05  .341060513165D-11  .000000000000D+00
     .290000000000D+02  .310625000000D+02  .437482508617D-08 -.286198951717D+01
     .170059502125D-05  .212143408135D-03  .474415719509D-05  .518048924446D+04
     .554384000000D+06  .186264514923D-08  .302150495322D+01  .465661287308D-07
     .959700760760D+00  .282750000000D+03 -.309017757992D+01 -.796283168390D-08
     .721458623076D-10  .100000000000D+01  .178200000000D+04  .000000000000D+00
     .240000000000D+01  .630000000000D+02  .512227416039D-08  .290000000000D+02
     .547206000000D+06  .400000000000D+01
 2 14  3  8 10  0  0.0  .482704490423D-03  .216004991671D-11  .000000000000D+00
     .870000000000D+02 -.160937500000D+02  .527950562689D-08 -.222213445193D+01
    -.832602381706D-06  .133053645259D-01  .707432627678D-05  .515356636429D+04
     .554400000000D+06  .225380063057D-06 -.222244460665D+00 -.134110450745D-06
     .939588955069D+00  .229343750000D+03 -.246865319421D+01 -.827355891265D-08
     .230366738556D-09  .100000000000D+01  .178200000000D+04  .000000000000D+00
     .340000000000D+01  .000000000000D+00 -.200234353542D-07  .870000000000D+02
     .547206000000D+06  .400000000000D+01
 3 14  3  8 10  0  0.0  .335326883942D-03  .522959453519D-11  .000000000000D+00
     .950000000000D+02 -.495625000000D+02  .492413368136D-08 -.201729569694D+01
    -.243075191975D-05  .167851055739D-01  .786781311035D-05  .515377673531D+04
     .554400000000D+06  .283122062683D-06 -.139606615066D+01  .838190317154D-07
     .937221879007D+00  .206656250000D+03  .136769655716D+01 -.802747723379D-08
     .335013954676D-09  .100000000000D+01  .178200000000D+04  .000000000000D+00
     .340000000000D+01  .000000000000D+00 -.465661287308D-08  .950000000000D+02
     .547206000000D+06  .400000000000D+01
 4 14  3  8 10  0  0.0  .598793849349D-05  .227373675443D-12  .000000000000D+00
     .490000000000D+02 -.139687500000D+02  .541022535760D-08  .118322971470D+01
    -.620260834694D-06  .105773691321D-01  .755675137043D-05  .515370080376D+04
     .554400000000D+06 -.223517417908D-06 -.206154229940D+00  .987201929092D-07
     .938613095083D+00  .227312500000D+03  .108152176744D+01 -.855857078454D-08
     .596453416107D-10  .100000000000D+01  .178200000000D+04  .000000000000D+00
     .240000000000D+01  .000000000000D+00 -.605359673500D-08  .490000000000D+02
     .547206000000D+06  .400000000000D+01
 5 14  3  8 10  0  0.0 -.385339837521D-03  .181898940355D-11  .000000000000D+00
     .500000000000D+02  .671875000000D+01  .492663378550D-08  .478716754189D-01
     .294297933578D-06  .358164974023D-02  .819563865662D-05  .515354924011D+04
     .554400000000D+06 -.931322574615D-08  .844550480586D+00  .428408384323D-07
     .947646416728D+00  .211593750000D+03  .348849425973D+00 -.823498587736D-08
    -.311084386485D-09  .100000000000D+01  .178200000000D+04  .000000000000D+00
     .240000000000D+01  .000000000000D+00 -.102445483208D-07  .500000000000D+02
     .547206000000D+06  .400000000000D+01
 7 14  3  8 10  0  0.0  .321689993143D-03  .420641299570D-11  .000000000000D+00
     .960000000000D+02  .340937500000D+02  .421053252844D-08  .280613243027D+01
     .178441405296D-05  .707103905734D-02  .526010990143D-05  .515364491844D+04
     .554400000000D+06 -.100582838058D-06  .296603972648D+01 -.372529029846D-07
     .974174664502D+00  .284593750000D+03 -.283688487740D+01 -.798068957061D-08
     .496449250533D-10  .100000000000D+01  .178200000000D+04  .000000000000D+00
     .240000000000D+01  .000000000000D+00 -.107102096081D-07  .960000000000D+02
     .547206000000D+06  .400000000000D+01
